{"type":"FeatureCollection","features":[{"type":"Feature","properties":{"nama":"Universitas Nusa Putra"},"geometry":{"coordinates":[106.87305263339857,-6.905352086464319],"type":"Point"},"id":0},{"type":"Feature","properties":{},"geometry":{"coordinates":[[106.87305629756173,-6.905355756739439],[106.89467508305626,-6.91104838541041]],"type":"LineString"}},{"type":"Feature","properties":{"nama":"Gelanggang Cisaat"},"geometry":{"coordinates":[106.89467499304772,-6.911047816662034],"type":"Point"},"id":2},{"type":"Feature","properties":{},"geometry":{"type":"Polygon","coordinates":[[[106.89467299825195,-6.910761877541522],[106.89464523162978,-6.910763231716971],[106.8946177324149,-6.9107672812018945],[106.8945907654393,-6.910773986997605],[106.89456459040929,-6.910783284523737],[106.89453945940436,-6.910795084240181],[106.8945156144495,-6.9108092725093995],[106.89449328518447,-6.910825712690811],[106.89447268665214,-6.910844246456708],[106.89445401722757,-6.91086469531703],[106.89443745670759,-6.910886862338307],[106.89442316457922,-6.910910534040231],[106.89441127848367,-6.910935482451584],[106.89440191289084,-6.9109614673057065],[106.89439515799688,-6.910988238354398],[106.89439107885552,-6.9110155377779385],[106.89438971475161,-6.911043102668022],[106.89439107882266,-6.911070667559714],[106.8943951579324,-6.911097966988015],[106.8944019127972,-6.911124738044436],[106.89441127836452,-6.911150722908963],[106.8944231644391,-6.911175671332991],[106.8944374565519,-6.911199343049379],[106.89445401706227,-6.911221510086349],[106.8944726864836,-6.91124195896299],[106.89449328501917,-6.911260492745209],[106.89451561429381,-6.911276932942313],[106.89453945926424,-6.911291121225995],[106.89456459029012,-6.911302920955115],[106.89459076534567,-6.911312218491649],[106.89461773235041,-6.911318924295092],[106.89464523159691,-6.911322973784775],[106.89467299825195,-6.911324327961832],[106.894700764907,-6.911322973784775],[106.8947282641535,-6.911318924295092],[106.89475523115824,-6.911312218491649],[106.89478140621378,-6.911302920955115],[106.89480653723966,-6.911291121225995],[106.8948303822101,-6.911276932942313],[106.89485271148473,-6.911260492745209],[106.8948733100203,-6.91124195896299],[106.89489197944164,-6.911221510086349],[106.89490853995201,-6.911199343049379],[106.89492283206481,-6.911175671332991],[106.8949347181394,-6.911150722908963],[106.89494408370669,-6.911124738044436],[106.89495083857152,-6.911097966988015],[106.89495491768125,-6.911070667559714],[106.89495628175227,-6.911043102668022],[106.89495491764836,-6.9110155377779385],[106.89495083850701,-6.910988238354398],[106.89494408361305,-6.9109614673057065],[106.89493471802024,-6.910935482451584],[106.89492283192466,-6.910910534040231],[106.89490853979629,-6.910886862338307],[106.89489197927634,-6.91086469531703],[106.89487330985177,-6.910844246456708],[106.89485271131944,-6.910825712690811],[106.8948303820544,-6.9108092725093995],[106.89480653709954,-6.910795084240181],[106.89478140609461,-6.910783284523737],[106.89475523106461,-6.910773986997605],[106.89472826408901,-6.9107672812018945],[106.89470076487412,-6.910763231716971],[106.89467299825195,-6.910761877541522]]]}},{"type":"Feature","properties":{},"geometry":{"type":"Polygon","coordinates":[[[106.87304291934606,-6.9050992293427464],[106.87301958799475,-6.905100367224203],[106.87299648133678,-6.905103769910168],[106.87297382190157,-6.905109404630969],[106.87295182791156,-6.905117217121235],[106.87293071118067,-6.905127132142527],[106.87291067507432,-6.905139054207894],[106.87289191255101,-6.905152868501477],[106.87287460430402,-6.905168441984237],[106.87285891702118,-6.905185624675189],[106.87284500177962,-6.905204251095789],[106.87283299259084,-6.905224141863587],[106.87282300511006,-6.905245105419759],[106.87281513552237,-6.905266939873931],[106.87280945961649,-6.905289434948478],[106.87280603205474,-6.905312374003612],[106.87280488584678,-6.9053355361237445],[106.87280603203156,-6.90535869824501],[106.87280945957096,-6.9053816373035035],[106.87281513545632,-6.905404132383505],[106.87282300502599,-6.905425966845015],[106.872832992492,-6.905446930410131],[106.87284500166977,-6.905466821188131],[106.87285891690456,-6.905485447619803],[106.87287460418513,-6.9055026303222675],[106.8728919124344,-6.905518203816542],[106.87291067496447,-6.905532018121197],[106.8729307110818,-6.905543940196766],[106.8729518278275,-6.905553855227001],[106.8729738218355,-6.905561667724608],[106.87299648129128,-6.905567302450861],[106.87301958797157,-6.905570705140185],[106.87304291934606,-6.905571843022776],[106.87306625072056,-6.905570705140185],[106.87308935740084,-6.905567302450861],[106.87311201685661,-6.905561667724608],[106.87313401086462,-6.905553855227001],[106.8731551276103,-6.905543940196766],[106.87317516372765,-6.905532018121197],[106.87319392625771,-6.905518203816542],[106.873211234507,-6.9055026303222675],[106.87322692178756,-6.905485447619803],[106.87324083702234,-6.905466821188131],[106.87325284620012,-6.905446930410131],[106.87326283366613,-6.905425966845015],[106.8732707032358,-6.905404132383505],[106.87327637912115,-6.9053816373035035],[106.87327980666056,-6.90535869824501],[106.87328095284533,-6.9053355361237445],[106.87327980663737,-6.905312374003612],[106.87327637907563,-6.905289434948478],[106.87327070316974,-6.905266939873931],[106.87326283358205,-6.905245105419759],[106.87325284610128,-6.905224141863587],[106.8732408369125,-6.905204251095789],[106.87322692167095,-6.905185624675189],[106.87321123438811,-6.905168441984237],[106.8731939261411,-6.905152868501477],[106.8731751636178,-6.905139054207894],[106.87315512751145,-6.905127132142527],[106.87313401078055,-6.905117217121235],[106.87311201679056,-6.905109404630969],[106.87308935735534,-6.905103769910168],[106.87306625069738,-6.905100367224203],[106.87304291934606,-6.9050992293427464]]]}}]}